IRIDIUM 921             
1 24873U 97034E   24139.46482184  .00055178  00000+0  14957-2 0  9996
2 24873  86.3788 302.8159 0003678  28.8820 331.2635 15.37418834470611
IRIDIUM 26              
1 24903U 97043A   24139.44322064  .00001365  00000+0  46004-3 0  9996
2 24903  86.3932 276.2369 0002009  87.4073 272.7354 14.36356876400065
IRIDIUM 22              
1 24907U 97043E   24139.47587981  .00001346  00000+0  46370-3 0  9999
2 24907  86.3933 279.4386 0002164  92.7322 267.4122 14.35246845400148
DUMMY MASS 1            
1 24925U 97048A   24139.50093110  .00001207  00000+0  13431-3 0  9992
2 24925  86.3316 317.7147 0009147 101.3287 258.8966 14.86199084446495
DUMMY MASS 2            
1 24926U 97048B   24139.53273081  .00001200  00000+0  13422-3 0  9996
2 24926  86.3318 319.2383 0009806 110.1841 250.0439 14.85957480446280
IRIDIUM 29              
1 24944U 97051A   24139.55770764  .00001212  00000+0  41318-3 0  9990
2 24944  86.3923 309.3341 0002384  92.0232 268.1238 14.35694833396637
IRIDIUM 33              
1 24946U 97051C   24139.55668167  .00000881  00000+0  30646-3 0  9998
2 24946  86.3837 308.5877 0005874 292.5927  67.4647 14.34355592396160
IRIDIUM 28              
1 24948U 97051E   24139.51159949  .00001270  00000+0  42528-3 0  9994
2 24948  86.3925 307.0935 0001795  83.1072 277.0329 14.36646751397161
